1 40894U 15047A   25358.27325946  .00001107  00000+0  14352-3 0  9999
2 40894  97.6528  36.7299 0027447 357.0383   3.0664 14.82449538554273
